*******************************************************************************
Ephemeris / WWW_USER Wed Apr  4 23:33:08 2018 Pasadena, USA      / Horizons    
*******************************************************************************
Target body name: 4 Vesta                         {source: JPL#34}
Center body name: Solar System Barycenter (0)     {source: DE431}
Center-site name: BODY CENTER
*******************************************************************************
Start time      : A.D. 2000-Jan-01 00:00:00.0000 TDB
Stop  time      : A.D. 2001-Jan-01 00:00:00.0000 TDB
Step-size       : 7200 minutes
*******************************************************************************
Center geodetic : 0.00000000,0.00000000,0.0000000 {E-lon(deg),Lat(deg),Alt(km)}
Center cylindric: 0.00000000,0.00000000,0.0000000 {E-lon(deg),Dxy(km),Dz(km)}
Center radii    : (undefined)                                                  
Small perturbers: Yes                             {source: SB431-N16}
Output units    : AU-D                                                         
Output type     : GEOMETRIC cartesian states
Output format   : 2 (position and velocity)
Reference frame : ICRF/J2000.0                                                 
Coordinate systm: Ecliptic and Mean Equinox of Reference Epoch                 
*******************************************************************************
Initial IAU76/J2000 heliocentric ecliptic osculating elements (au, days, deg.):
  EPOCH=  2448953.5 ! 1992-Nov-27.00 (TDB)         Residual RMS= .50575        
   EC= .08940671368300425  QR= 2.149926234697652   TP= 2448965.6989691556      
   OM= 103.9831114166946   W=  150.0028930287553   IN= 7.135497649691238       
  Equivalent ICRF heliocentric equatorial cartesian coordinates (au, au/d):
   X=-7.262352986344842E-01  Y=-1.911310137901048E+00  Z=-6.659499008373883E-01
  VX= 1.145208333797262E-02 VY=-3.294506484840738E-03 VZ=-2.808133774681220E-03
Asteroid physical parameters (km, seconds, rotational period in hours):        
   GM= 17.8                RAD= 262.7              ROTPER= 5.342128            
   H= 3.2                  G= .320                 B-V= .782                   
                           ALBEDO= .4228           STYP= V                     
*******************************************************************************
JDTDB
   X     Y     Z
   VX    VY    VZ
*******************************************************************************
$$SOE
2451544.500000000 = A.D. 2000-Jan-01 00:00:00.0000 TDB 
  -1.365526967902249E+00 -1.672221246701683E+00  2.155800468820432E-01
   9.610352866275351E-03 -7.434582929929497E-03 -9.426531966603710E-04
2451549.500000000 = A.D. 2000-Jan-06 00:00:00.0000 TDB 
  -1.316984082528233E+00 -1.708778872736753E+00  2.107885648369156E-01
   9.805703355956633E-03 -7.187467635675013E-03 -9.738364325626393E-04
2451554.500000000 = A.D. 2000-Jan-11 00:00:00.0000 TDB 
  -1.267481090651805E+00 -1.744086090023441E+00  2.058427409429254E-01
   9.994360287579340E-03 -6.934452838735610E-03 -1.004384654571174E-03
2451559.500000000 = A.D. 2000-Jan-16 00:00:00.0000 TDB 
  -1.217051981943663E+00 -1.778113910058916E+00  2.007458290260374E-01
   1.017611608900128E-02 -6.675743711474664E-03 -1.034266456050250E-03
2451564.500000000 = A.D. 2000-Jan-21 00:00:00.0000 TDB 
  -1.165731765810597E+00 -1.810834393477624E+00  1.955012384471617E-01
   1.035077052228870E-02 -6.411554686015467E-03 -1.063451041389229E-03
2451569.500000000 = A.D. 2000-Jan-26 00:00:00.0000 TDB 
  -1.113556433472226E+00 -1.842220695565293E+00  1.901125308717744E-01
   1.051813118188765E-02 -6.142109134644411E-03 -1.091908295953045E-03
2451574.500000000 = A.D. 2000-Jan-31 00:00:00.0000 TDB 
  -1.060562917589519E+00 -1.872247110090011E+00  1.845834166921998E-01
   1.067801397537278E-02 -5.867639016290256E-03 -1.119608855038488E-03
2451579.500000000 = A.D. 2000-Feb-05 00:00:00.0000 TDB 
  -1.006789049537410E+00 -1.900889111281785E+00  1.789177511079587E-01
   1.083024358475428E-02 -5.588384489553708E-03 -1.146524171659933E-03
2451584.500000000 = A.D. 2000-Feb-10 00:00:00.0000 TDB 
  -9.522735144230666E-01 -1.928123393795594E+00  1.731195298705323E-01
   1.097465390664685E-02 -5.304593493296393E-03 -1.172626582959233E-03
2451589.500000000 = A.D. 2000-Feb-15 00:00:00.0000 TDB 
  -8.970558039594290E-01 -1.953927910499797E+00  1.671928847001062E-01
   1.111108846971916E-02 -5.016521296566097E-03 -1.197889374941900E-03
2451594.500000000 = A.D. 2000-Feb-20 00:00:00.0000 TDB 
  -8.411761673119577E-01 -1.978281907942639E+00  1.611420783836654E-01
   1.123940082763027E-02 -4.724430020376576E-03 -1.222286845124135E-03
2451599.500000000 = A.D. 2000-Feb-25 00:00:00.0000 TDB 
  -7.846755600466276E-01 -2.001165959363712E+00  1.549714995661395E-01
   1.135945492515342E-02 -4.428588134481073E-03 -1.245794362568847E-03
2451604.500000000 = A.D. 2000-Mar-01 00:00:00.0000 TDB 
  -7.275955913204215E-01 -2.022561995133883E+00  1.486856572491346E-01
   1.147112543451493E-02 -4.129269932513307E-03 -1.268388424718739E-03
2451609.500000000 = A.D. 2000-Mar-06 00:00:00.0000 TDB 
  -6.699784694711441E-01 -2.042453330522433E+00  1.422891750145603E-01
   1.157429805886587E-02 -3.826754988041238E-03 -1.290046710545755E-03
2451614.500000000 = A.D. 2000-Mar-11 00:00:00.0000 TDB 
  -6.118669461768370E-01 -2.060824690699866E+00  1.357867849922080E-01
   1.166886980070338E-02 -3.521327592986116E-03 -1.310748129806413E-03
2451619.500000000 = A.D. 2000-Mar-16 00:00:00.0000 TDB 
  -5.533042593633211E-01 -2.077662232891542E+00  1.291833215909126E-01
   1.175474919405567E-02 -3.213276179809464E-03 -1.330472868345918E-03
2451624.500000000 = A.D. 2000-Mar-21 00:00:00.0000 TDB 
  -4.943340750429380E-01 -2.092953565605657E+00  1.224837150131955E-01
   1.183185649971362E-02 -2.902892729439227E-03 -1.349202429385648E-03
2451629.500000000 = A.D. 2000-Mar-26 00:00:00.0000 TDB 
  -4.350004282707034E-01 -2.106687764870152E+00  1.156929845737227E-01
   1.190012386295495E-02 -2.590472167337351E-03 -1.366919670692382E-03
2451634.500000000 = A.D. 2000-Mar-31 00:00:00.0000 TDB 
  -3.753476634064808E-01 -2.118855387425717E+00  1.088162318424318E-01
   1.195949543336002E-02 -2.276311750317402E-03 -1.383608837524597E-03
2451639.500000000 = A.D. 2000-Apr-05 00:00:00.0000 TDB 
  -3.154203738732399E-01 -2.129448480835498E+00  1.018586336336812E-01
   1.200992744656025E-02 -1.960710446888121E-03 -1.399255591263053E-03
2451644.500000000 = A.D. 2000-Apr-10 00:00:00.0000 TDB 
  -2.552633416016117E-01 -2.138460590486630E+00  9.482543486325166E-02
   1.205138826799365E-02 -1.643968314179902E-03 -1.413847033615093E-03
2451649.500000000 = A.D. 2000-Apr-15 00:00:00.0000 TDB 
  -1.949214763503798E-01 -2.145886763474766E+00  8.772194129571581E-02
   1.208385839878967E-02 -1.326385874778272E-03 -1.427371726235800E-03
2451654.500000000 = A.D. 2000-Apr-20 00:00:00.0000 TDB 
  -1.344397550920911E-01 -2.151723549379427E+00  8.055351220550303E-02
   1.210733044384822E-02 -1.008263496737177E-03 -1.439819705605927E-03
2451659.500000000 = A.D. 2000-Apr-25 00:00:00.0000 TDB 
  -7.386316165246329E-02 -2.155968997953508E+00  7.332555297562671E-02
   1.212180904229810E-02 -6.899007796860038E-04 -1.451182493083217E-03
2451664.500000000 = A.D. 2000-Apr-30 00:00:00.0000 TDB 
  -1.323662679049834E-02 -2.158622653764000E+00  6.604350765821074E-02
   1.212731076088265E-02 -3.715959496188012E-04 -1.461453100142095E-03
2451669.500000000 = A.D. 2000-May-05 00:00:00.0000 TDB 
   4.739503109753159E-02 -2.159685547833519E+00  5.871285152069850E-02
   1.212386395120690E-02 -5.364526484462200E-05 -1.470626028872222E-03
2451674.500000000 = A.D. 2000-May-10 00:00:00.0000 TDB 
   1.079871644724187E-01 -2.159160186344626E+00  5.133908360124616E-02
   1.211150857202772E-02  2.636575644480424E-04 -1.478697267823986E-03
2451679.500000000 = A.D. 2000-May-15 00:00:00.0000 TDB 
   1.684953541731315E-01 -2.157050536480794E+00  4.392771929629933E-02
   1.209029597790753E-02  5.800219407468857E-04 -1.485664283310569E-03
2451684.500000000 = A.D. 2000-May-20 00:00:00.0000 TDB 
   2.288754658002579E-01 -2.153362009488320E+00  3.648428300270138E-02
   1.206028867578398E-02  8.951609259849313E-04 -1.491526006322765E-03
2451689.500000000 = A.D. 2000-May-25 00:00:00.0000 TDB 
   2.890837048060888E-01 -2.148101441052846E+00  2.901430083583064E-02
   1.202156005140772E-02  1.208791768554137E-03 -1.496282815228098E-03
2451694.500000000 = A.D. 2000-May-30 00:00:00.0000 TDB 
   3.490766701458826E-01 -2.141277069095385E+00  2.152329344452095E-02
   1.197419406769839E-02  1.520636408040939E-03 -1.499936514375163E-03
2451699.500000000 = A.D. 2000-Jun-04 00:00:00.0000 TDB 
   4.088114063544637E-01 -2.132898509105458E+00  1.401676894295514E-02
   1.191828493680558E-02  1.830421955331178E-03 -1.502490308726615E-03
2451704.500000000 = A.D. 2000-Jun-09 00:00:00.0000 TDB 
   4.682454539210560E-01 -2.122976727138575E+00  6.500215978907017E-03
   1.185393676765900E-02  2.137881146564420E-03 -1.503948774727873E-03
2451709.500000000 = A.D. 2000-Jun-14 00:00:00.0000 TDB 
   5.273368978447723E-01 -2.111524010611626E+00 -1.020903043484436E-03
   1.178126319103572E-02  2.442752769839996E-03 -1.504317827669594E-03
2451714.500000000 = A.D. 2000-Jun-19 00:00:00.0000 TDB 
   5.860444142637438E-01 -2.098553937035010E+00 -8.541158569532326E-03
   1.170038696431502E-02  2.744782063655014E-03 -1.503604685804253E-03
2451719.500000000 = A.D. 2000-Jun-24 00:00:00.0000 TDB 
   6.443273150618017E-01 -2.084081340825160E+00 -1.605516031281360E-02
   1.161143955810600E-02  3.043721086176538E-03 -1.501817831469499E-03
2451724.500000000 = A.D. 2000-Jun-29 00:00:00.0000 TDB 
   7.021455903674713E-01 -2.068122278345002E+00 -2.355756347263477E-02
   1.151456072690097E-02  3.339329054713471E-03 -1.498966969466382E-03
